{"fetched_at":"2026-07-12T17:32:34.260Z","source":"https://celestrak.org/NORAD/elements/gp.php?NAME=BRO&FORMAT=JSON","constellation":"unseenlabs","records":[{"OBJECT_NAME":"BRO-1","OBJECT_ID":"2019-054A","EPOCH":"2026-07-12T04:50:55.221792","CLASSIFICATION_TYPE":"U","MEAN_MOTION":16.11836916,"ECCENTRICITY":0.00089089,"INCLINATION":44.9817,"RA_OF_ASC_NODE":137.4507,"ARG_OF_PERICENTER":169.1718,"MEAN_ANOMALY":190.939,"EPHEMERIS_TYPE":0,"NORAD_CAT_ID":44495,"ELEMENT_SET_NO":999,"REV_AT_EPOCH":38374,"BSTAR":0.00081793071,"MEAN_MOTION_DOT":0.00906959,"MEAN_MOTION_DDOT":0.0004890749},{"OBJECT_NAME":"BRO-5","OBJECT_ID":"2022-002CF","EPOCH":"2026-07-12T12:35:40.783776","CLASSIFICATION_TYPE":"U","MEAN_MOTION":15.48773307,"ECCENTRICITY":0.000509,"INCLINATION":97.2994,"RA_OF_ASC_NODE":267.4408,"ARG_OF_PERICENTER":213.7276,"MEAN_ANOMALY":146.3651,"EPHEMERIS_TYPE":0,"NORAD_CAT_ID":51061,"ELEMENT_SET_NO":999,"REV_AT_EPOCH":25017,"BSTAR":0.00036292,"MEAN_MOTION_DOT":0.0001942,"MEAN_MOTION_DDOT":0},{"OBJECT_NAME":"BRO-6","OBJECT_ID":"2022-047AE","EPOCH":"2026-07-12T11:39:09.120672","CLASSIFICATION_TYPE":"U","MEAN_MOTION":15.52413167,"ECCENTRICITY":0.0002935,"INCLINATION":97.3396,"RA_OF_ASC_NODE":285.0579,"ARG_OF_PERICENTER":325.9843,"MEAN_ANOMALY":34.1221,"EPHEMERIS_TYPE":0,"NORAD_CAT_ID":52422,"ELEMENT_SET_NO":999,"REV_AT_EPOCH":23507,"BSTAR":0.00050534,"MEAN_MOTION_DOT":0.00030834,"MEAN_MOTION_DDOT":0},{"OBJECT_NAME":"BRO-8","OBJECT_ID":"2023-001C","EPOCH":"2026-07-12T11:40:59.393856","CLASSIFICATION_TYPE":"U","MEAN_MOTION":15.50631629,"ECCENTRICITY":0.0005143,"INCLINATION":97.3195,"RA_OF_ASC_NODE":259.0606,"ARG_OF_PERICENTER":49.5252,"MEAN_ANOMALY":310.6447,"EPHEMERIS_TYPE":0,"NORAD_CAT_ID":55011,"ELEMENT_SET_NO":999,"REV_AT_EPOCH":19612,"BSTAR":0.00039166,"MEAN_MOTION_DOT":0.0002239,"MEAN_MOTION_DDOT":0},{"OBJECT_NAME":"BRO-11","OBJECT_ID":"2023-174J","EPOCH":"2026-07-12T11:14:36.782592","CLASSIFICATION_TYPE":"U","MEAN_MOTION":15.27574894,"ECCENTRICITY":0.0011926,"INCLINATION":97.3903,"RA_OF_ASC_NODE":270.0826,"ARG_OF_PERICENTER":116.0587,"MEAN_ANOMALY":244.1881,"EPHEMERIS_TYPE":0,"NORAD_CAT_ID":58264,"ELEMENT_SET_NO":999,"REV_AT_EPOCH":14861,"BSTAR":0.000093515,"MEAN_MOTION_DOT":0.00002452,"MEAN_MOTION_DDOT":0},{"OBJECT_NAME":"BRO-13","OBJECT_ID":"2024-043K","EPOCH":"2026-07-12T13:34:19.307136","CLASSIFICATION_TYPE":"U","MEAN_MOTION":14.96646303,"ECCENTRICITY":0.0007567,"INCLINATION":97.852,"RA_OF_ASC_NODE":324.669,"ARG_OF_PERICENTER":272.8301,"MEAN_ANOMALY":87.2054,"EPHEMERIS_TYPE":0,"NORAD_CAT_ID":59107,"ELEMENT_SET_NO":999,"REV_AT_EPOCH":12841,"BSTAR":0.000070612,"MEAN_MOTION_DOT":0.00000746,"MEAN_MOTION_DDOT":0},{"OBJECT_NAME":"BRO-12","OBJECT_ID":"2024-043L","EPOCH":"2026-07-12T11:46:30.050112","CLASSIFICATION_TYPE":"U","MEAN_MOTION":14.96890305,"ECCENTRICITY":0.000709,"INCLINATION":97.8505,"RA_OF_ASC_NODE":324.7626,"ARG_OF_PERICENTER":267.6605,"MEAN_ANOMALY":92.3805,"EPHEMERIS_TYPE":0,"NORAD_CAT_ID":59108,"ELEMENT_SET_NO":999,"REV_AT_EPOCH":12842,"BSTAR":0.000047606,"MEAN_MOTION_DOT":0.00000486,"MEAN_MOTION_DDOT":0},{"OBJECT_NAME":"BRO-14","OBJECT_ID":"2024-149CM","EPOCH":"2026-07-11T16:08:15.761760","CLASSIFICATION_TYPE":"U","MEAN_MOTION":14.96229545,"ECCENTRICITY":0.00069891,"INCLINATION":97.6861,"RA_OF_ASC_NODE":268.01,"ARG_OF_PERICENTER":27.4384,"MEAN_ANOMALY":332.7206,"EPHEMERIS_TYPE":0,"NORAD_CAT_ID":60551,"ELEMENT_SET_NO":999,"REV_AT_EPOCH":10365,"BSTAR":0.000055478545,"MEAN_MOTION_DOT":0.00000569,"MEAN_MOTION_DDOT":0},{"OBJECT_NAME":"BRO-15","OBJECT_ID":"2024-149CP","EPOCH":"2026-07-09T10:45:19.005696","CLASSIFICATION_TYPE":"U","MEAN_MOTION":14.96220766,"ECCENTRICITY":0.00085255,"INCLINATION":97.6798,"RA_OF_ASC_NODE":265.407,"ARG_OF_PERICENTER":23.7668,"MEAN_ANOMALY":336.3946,"EPHEMERIS_TYPE":0,"NORAD_CAT_ID":60553,"ELEMENT_SET_NO":999,"REV_AT_EPOCH":10333,"BSTAR":0.000069493641,"MEAN_MOTION_DOT":0.00000727,"MEAN_MOTION_DDOT":0},{"OBJECT_NAME":"BRO-16","OBJECT_ID":"2025-009AX","EPOCH":"2026-07-11T18:23:14.646336","CLASSIFICATION_TYPE":"U","MEAN_MOTION":15.24113003,"ECCENTRICITY":0.00018536,"INCLINATION":97.4055,"RA_OF_ASC_NODE":272.9493,"ARG_OF_PERICENTER":160.5219,"MEAN_ANOMALY":199.609,"EPHEMERIS_TYPE":0,"NORAD_CAT_ID":62654,"ELEMENT_SET_NO":999,"REV_AT_EPOCH":8254,"BSTAR":0.00009310811,"MEAN_MOTION_DOT":0.00002191,"MEAN_MOTION_DDOT":0},{"OBJECT_NAME":"BRO-18","OBJECT_ID":"2025-135Y","EPOCH":"2026-07-12T13:29:22.591392","CLASSIFICATION_TYPE":"U","MEAN_MOTION":15.22159354,"ECCENTRICITY":0.0002365,"INCLINATION":97.4651,"RA_OF_ASC_NODE":308.3992,"ARG_OF_PERICENTER":119.5457,"MEAN_ANOMALY":240.6015,"EPHEMERIS_TYPE":0,"NORAD_CAT_ID":64550,"ELEMENT_SET_NO":999,"REV_AT_EPOCH":5873,"BSTAR":0.000082035,"MEAN_MOTION_DOT":0.00001811,"MEAN_MOTION_DDOT":0},{"OBJECT_NAME":"BRO-17","OBJECT_ID":"2025-276G","EPOCH":"2026-07-11T16:52:02.273376","CLASSIFICATION_TYPE":"U","MEAN_MOTION":15.1814184,"ECCENTRICITY":0.00050596,"INCLINATION":97.4188,"RA_OF_ASC_NODE":265.3383,"ARG_OF_PERICENTER":275.3217,"MEAN_ANOMALY":84.744,"EPHEMERIS_TYPE":0,"NORAD_CAT_ID":66672,"ELEMENT_SET_NO":999,"REV_AT_EPOCH":3411,"BSTAR":0.000085531826,"MEAN_MOTION_DOT":0.00001679,"MEAN_MOTION_DDOT":0},{"OBJECT_NAME":"BRO-20","OBJECT_ID":"2025-276J","EPOCH":"2026-07-12T00:12:34.378272","CLASSIFICATION_TYPE":"U","MEAN_MOTION":15.18315626,"ECCENTRICITY":0.00046651,"INCLINATION":97.4164,"RA_OF_ASC_NODE":265.6264,"ARG_OF_PERICENTER":278.109,"MEAN_ANOMALY":81.9615,"EPHEMERIS_TYPE":0,"NORAD_CAT_ID":66674,"ELEMENT_SET_NO":999,"REV_AT_EPOCH":3416,"BSTAR":0.00009668631,"MEAN_MOTION_DOT":0.00001917,"MEAN_MOTION_DDOT":0},{"OBJECT_NAME":"BRO-19","OBJECT_ID":"2026-067G","EPOCH":"2026-07-12T08:19:43.848192","CLASSIFICATION_TYPE":"U","MEAN_MOTION":15.18977516,"ECCENTRICITY":0.0002405,"INCLINATION":97.4491,"RA_OF_ASC_NODE":151.4462,"ARG_OF_PERICENTER":112.0744,"MEAN_ANOMALY":248.0746,"EPHEMERIS_TYPE":0,"NORAD_CAT_ID":68422,"ELEMENT_SET_NO":999,"REV_AT_EPOCH":1576,"BSTAR":0.00010099,"MEAN_MOTION_DOT":0.00002044,"MEAN_MOTION_DDOT":0},{"OBJECT_NAME":"BRO-21","OBJECT_ID":"2026-100AD","EPOCH":"2026-07-11T15:44:10.654368","CLASSIFICATION_TYPE":"U","MEAN_MOTION":15.21609012,"ECCENTRICITY":0.00072053,"INCLINATION":97.402,"RA_OF_ASC_NODE":90.1493,"ARG_OF_PERICENTER":342.6742,"MEAN_ANOMALY":17.4247,"EPHEMERIS_TYPE":0,"NORAD_CAT_ID":69007,"ELEMENT_SET_NO":999,"REV_AT_EPOCH":1052,"BSTAR":0.000067436934,"MEAN_MOTION_DOT":0.00001453,"MEAN_MOTION_DDOT":0},{"OBJECT_NAME":"BRO-22","OBJECT_ID":"2026-132C","EPOCH":"2026-07-11T23:19:31.386720","CLASSIFICATION_TYPE":"U","MEAN_MOTION":14.99799758,"ECCENTRICITY":0.00162104,"INCLINATION":97.6832,"RA_OF_ASC_NODE":256.3344,"ARG_OF_PERICENTER":192.4467,"MEAN_ANOMALY":167.6358,"EPHEMERIS_TYPE":0,"NORAD_CAT_ID":69504,"ELEMENT_SET_NO":999,"REV_AT_EPOCH":449,"BSTAR":0.000055871251,"MEAN_MOTION_DOT":0.00000633,"MEAN_MOTION_DDOT":0}]}
