BRO-1                   
1 44495U 19054A   26193.20202803  .00906959  48907-3  81793-3 0  9993
2 44495  44.9817 137.4507 0008908 169.1718 190.9390 16.11836916383744
BRO-5                   
1 51061U 22002CF  26193.52477759  .00019420  00000+0  36292-3 0  9996
2 51061  97.2994 267.4408 0005090 213.7276 146.3651 15.48773307250174
BRO-6                   
1 52422U 22047AE  26193.48552223  .00030834  00000+0  50534-3 0  9999
2 52422  97.3396 285.0579 0002935 325.9843  34.1221 15.52413167235078
BRO-8                   
1 55011U 23001C   26193.48679854  .00022390  00000+0  39166-3 0  9993
2 55011  97.3195 259.0606 0005143  49.5252 310.6447 15.50631629196128
BRO-11                  
1 58264U 23174J   26193.46848128  .00002452  00000+0  93515-4 0  9993
2 58264  97.3903 270.0826 0011926 116.0587 244.1881 15.27574894148610
BRO-13                  
1 59107U 24043K   26193.56550124  .00000746  00000+0  70612-4 0  9990
2 59107  97.8520 324.6690 0007567 272.8301  87.2054 14.96646303128417
BRO-12                  
1 59108U 24043L   26193.49062558  .00000486  00000+0  47606-4 0  9990
2 59108  97.8505 324.7626 0007090 267.6605  92.3805 14.96890305128426
BRO-14                  
1 60551U 24149CM  26192.67240465  .00000569  00000+0  55479-4 0  9994
2 60551  97.6861 268.0100 0006989  27.4384 332.7206 14.96229545103658
BRO-15                  
1 60553U 24149CP  26190.44813664  .00000727  00000+0  69494-4 0  9994
2 60553  97.6798 265.4070 0008525  23.7668 336.3946 14.96220766103330
BRO-16                  
1 62654U 25009AX  26192.76614174  .00002191  00000+0  93108-4 0  9992
2 62654  97.4055 272.9493 0001853 160.5219 199.6090 15.24113003 82545
BRO-18                  
1 64550U 25135Y   26193.56206703  .00001811  00000+0  82035-4 0  9998
2 64550  97.4651 308.3992 0002365 119.5457 240.6015 15.22159354 58734
BRO-17                  
1 66672U 25276G   26192.70280409  .00001679  00000+0  85532-4 0  9998
2 66672  97.4188 265.3383 0005059 275.3217  84.7440 15.18141840 34111
BRO-20                  
1 66674U 25276J   26193.00873123  .00001917  00000+0  96686-4 0  9992
2 66674  97.4164 265.6264 0004665 278.1090  81.9615 15.18315626 34163
BRO-19                  
1 68422U 26067G   26193.34703528  .00002044  00000+0  10099-3 0  9997
2 68422  97.4491 151.4462 0002405 112.0744 248.0746 15.18977516 15761
BRO-21                  
1 69007U 26100AD  26192.65567887  .00001453  00000+0  67437-4 0  9996
2 69007  97.4020  90.1493 0007205 342.6742  17.4247 15.21609012 10524
BRO-22                  
1 69504U 26132C   26192.97189105  .00000633  00000+0  55871-4 0  9999
2 69504  97.6832 256.3344 0016210 192.4467 167.6358 14.99799758  4492
